OBJECT_NAME,OBJECT_ID,EPOCH,MEAN_MOTION,ECCENTRICITY,INCLINATION,RA_OF_ASC_NODE,ARG_OF_PERICENTER,MEAN_ANOMALY,EPHEMERIS_TYPE,CLASSIFICATION_TYPE,NORAD_CAT_ID,ELEMENT_SET_NO,REV_AT_EPOCH,BSTAR,MEAN_MOTION_DOT,MEAN_MOTION_DDOT
HORS 2,2023-091AG,2024-07-08T02:01:36.985440,15.10458610,.0013525,97.6128,243.0168,44.4088,315.8223,0,U,57196,999,5670,.45998E-3,.7522E-4,0
A-SEANSAT-PG1,2023-091AH,2024-07-07T21:45:14.277600,15.10862603,.0013104,97.6106,242.8545,47.7462,312.4876,0,U,57197,999,5668,.54408E-3,.901E-4,0
YARILO 3,2023-091AJ,2024-07-08T02:11:51.058752,15.17891979,.0010835,97.6150,244.8416,44.9249,315.2859,0,U,57198,999,5681,.1053E-2,.21351E-3,0
SITRO-AIS 10 (BURDAEV),2023-091AK,2024-07-08T00:13:37.185024,15.11119141,.0012969,97.6124,243.0831,46.8522,313.3790,0,U,57199,999,5670,.52502E-3,.8753E-4,0
SITRO-AIS 9 (SHCHUKIN),2023-091AM,2024-07-08T00:11:30.879456,15.11101327,.0012932,97.6120,243.0605,46.8351,313.3957,0,U,57201,999,5670,.52387E-3,.8729E-4,0
UTMN 2 (RS27S),2023-091AP,2024-07-08T03:13:40.528704,15.10495846,.0013439,97.6126,243.0910,41.6214,318.6035,0,U,57203,999,5671,.45273E-3,.7409E-4,0
SITRO-AIS 12 (SMIRENNIY),2023-091AQ,2024-07-07T21:38:22.128864,15.11288614,.0012566,97.6124,243.0938,40.9768,319.2403,0,U,57204,999,5669,.55491E-3,.9298E-4,0
ARCCUBE 1 (RS25S),2023-091AR,2024-07-08T03:07:31.756224,15.14923980,.0011278,97.6069,243.9418,47.8919,312.3270,0,U,57205,999,5678,.74221E-3,.13797E-3,0
SITRO-AIS 11 (SHEFFER),2023-091AU,2024-07-08T02:02:07.187424,15.11380419,.0012504,97.6126,243.3009,41.1541,319.0629,0,U,57208,999,5672,.54271E-3,.9115E-4,0
H2SAT (HEINRICH HERTZ),2023-093A,2024-07-07T01:21:42.530400,1.00272231,.0000861,0.0215,81.8074,133.6512,90.9629,0,U,57213,999,379,0,-.3E-7,0
KUZGTU 1 (RS47S),2023-091AV,2024-07-07T22:03:28.708992,15.09171962,.0017913,97.6110,242.0914,51.1182,309.1641,0,U,57217,999,5663,.4477E-3,.7075E-4,0
2023-103B,2023-103B,2024-07-07T16:00:17.850528,15.79430911,.0007444,96.5813,258.3157,72.8218,287.3866,0,U,57422,999,5477,.32849E-3,.59463E-3,0
FENGYUN 3F,2023-111A,2024-07-08T03:51:55.614240,14.19834385,.0001683,98.7691,259.0989,68.1571,291.9784,0,U,57490,999,4824,.8647E-4,.139E-5,0
HJ-2F,2023-116A,2024-07-08T05:21:17.197344,15.21680240,.0002405,97.3881,196.5991,154.5277,205.6078,0,U,57519,999,5089,.49791E-3,.11202E-3,0
XRISM,2023-137A,2024-07-07T12:08:54.099744,15.01443749,.0009517,31.0019,243.2522,51.0835,309.0648,0,U,57800,999,4566,.28739E-3,.3887E-4,0
